NORAD_CAT_ID,OBJECT_NAME,OBJECT_TYPE,EPOCH,MEAN_MOTION,ECCENTRICITY,INCLINATION,RA_OF_ASC_NODE,ARG_OF_PERICENTER,MEAN_ANOMALY,BSTAR,MEAN_MOTION_DOT,MEAN_MOTION_DDOT,TLE_LINE0,TLE_LINE1,TLE_LINE2,SEMIMAJOR_AXIS,PERIOD,APOGEE,PERIGEE,DECAYED
51143.0,STARLINK-3184,PAYLOAD,2023-08-05 09:17:08,15.08842985,0.000107,53.2161,241.7292,85.597,274.5144,8.5541e-05,1.074e-05,0.0,0 STARLINK-3184,1 51143U 22005AR  23217.38690077  .00001074  00000-0  85541-4 0  9997,2 51143  53.2161 241.7292 0001070  85.5970 274.5144 15.08842985 86699,6917.871,95.437,540.476,538.996,0.0
51143.0,STARLINK-3184,PAYLOAD,2023-08-06 18:40:14,15.08840898,0.0001204,53.2162,235.4852,75.5498,284.5628,9.5077e-05,1.226e-05,0.0,0 STARLINK-3184,1 51143U 22005AR  23218.77794346  .00001226  00000-0  95077-4 0  9999,2 51143  53.2162 235.4852 0001204  75.5498 284.5628 15.08840898 86908,6917.878,95.437,540.576,538.91,0.0
51143.0,STARLINK-3184,PAYLOAD,2023-08-08 00:52:33,15.0884453,0.0001084,53.2158,229.8332,89.3807,270.731,4.284e-05,3.94e-06,0.0,0 STARLINK-3184,1 51143U 22005AR  23220.03650059  .00000394  00000-0  42840-4 0  9998,2 51143  53.2158 229.8332 0001084  89.3807 270.7310 15.08844530 87099,6917.867,95.437,540.481,538.982,0.0
51143.0,STARLINK-3184,PAYLOAD,2023-08-09 00:43:21,15.0883621,0.0001056,53.2154,225.3731,84.7071,275.4041,4.8682e-05,4.87e-06,0.0,0 STARLINK-3184,1 51143U 22005AR  23221.03010478  .00000487  00000-0  48682-4 0  9997,2 51143  53.2154 225.3731 0001056  84.7071 275.4041 15.08836210 87246,6917.892,95.438,540.488,539.026,0.0
51143.0,STARLINK-3184,PAYLOAD,2023-08-10 00:34:04,15.08871134,9.73e-05,53.2161,220.9125,99.9543,260.1559,0.00024404,3.601e-05,0.0,0 STARLINK-3184,1 51143U 22005AR  23222.02366880  .00003601  00000-0  24404-3 0  9994,2 51143  53.2161 220.9125 0000973  99.9543 260.1559 15.08871134 87396,6917.785,95.436,540.323,538.977,0.0
51143.0,STARLINK-3184,PAYLOAD,2023-08-10 06:55:40,15.08832562,0.0001073,53.216,219.7227,90.2951,269.8164,-8.5086e-05,-1.641e-05,0.0,0 STARLINK-3184,1 51143U 22005AR  23222.28866058 -.00001641  00000-0 -85086-4 0  9992,2 51143  53.2160 219.7227 0001073  90.2951 269.8164 15.08832562 87438,6917.903,95.438,540.51,539.026,0.0
51143.0,STARLINK-3184,PAYLOAD,2023-08-11 16:18:46,15.08830285,0.0001099,53.2165,213.4793,93.6405,266.4713,-4.6277e-05,-1.024e-05,0.0,0 STARLINK-3184,1 51143U 22005AR  23223.67970878 -.00001024  00000-0 -46277-4 0  9996,2 51143  53.2165 213.4793 0001099  93.6405 266.4713 15.08830285 87647,6917.91,95.438,540.535,539.015,0.0
51143.0,STARLINK-3184,PAYLOAD,2023-08-13 00:06:29,15.08830687,0.0001083,53.216,207.5312,92.881,267.2307,0.00017699,2.529e-05,0.0,0 STARLINK-3184,1 51143U 22005AR  23225.00450989  .00002529  00000-0  17699-3 0  9995,2 51143  53.2160 207.5312 0001083  92.8810 267.2307 15.08830687 87843,6917.909,95.438,540.523,539.025,0.0
51143.0,STARLINK-3184,PAYLOAD,2023-08-14 07:54:12,15.08839324,0.0001204,53.2166,201.5834,88.9081,271.205,9.5842e-05,1.238e-05,0.0,0 STARLINK-3184,1 51143U 22005AR  23226.32931259  .00001238  00000-0  95842-4 0  9998,2 51143  53.2166 201.5834 0001204  88.9081 271.2050 15.08839324 88043,6917.882,95.438,540.58,538.915,0.0
51143.0,STARLINK-3184,PAYLOAD,2023-08-15 15:41:55,15.0884007,0.0001178,53.2149,195.6364,93.1796,266.9331,7.2406e-05,8.65e-06,0.0,0 STARLINK-3184,1 51143U 22005AR  23227.65411159  .00000865  00000-0  72406-4 0  9993,2 51143  53.2149 195.6364 0001178  93.1796 266.9331 15.08840070 88241,6917.88,95.438,540.56,538.93,0.0
51143.0,STARLINK-3184,PAYLOAD,2023-08-17 05:51:10,15.08847293,0.0001413,53.2182,188.5008,96.4361,263.6792,7.9097e-05,9.71e-06,0.0,0 STARLINK-3184,1 51143U 22005AR  23229.24386716  .00000971  00000-0  79097-4 0  9991,2 51143  53.2182 188.5008 0001413  96.4361 263.6792 15.08847293 88485,6917.858,95.437,540.701,538.746,0.0
51143.0,STARLINK-3184,PAYLOAD,2023-08-18 04:06:34,15.0883768,0.0001398,53.219,184.3397,97.6179,262.4972,6.1043e-05,6.84e-06,0.0,0 STARLINK-3184,1 51143U 22005AR  23230.17123548  .00000684  00000-0  61043-4 0  9990,2 51143  53.2190 184.3397 0001398  97.6179 262.4972 15.08837680 88623,6917.887,95.438,540.72,538.785,0.0
51143.0,STARLINK-3184,PAYLOAD,2023-08-19 05:32:45,15.08840323,0.0001286,53.2164,179.5801,96.6834,263.4305,-3.8593e-05,-9.02e-06,0.0,0 STARLINK-3184,1 51143U 22005AR  23231.23107811 -.00000902  00000-0 -38593-4 0  9992,2 51143  53.2164 179.5801 0001286  96.6834 263.4305 15.08840323 88789,6917.879,95.438,540.634,538.855,0.0
51143.0,STARLINK-3184,PAYLOAD,2023-08-20 06:58:55,15.08840128,0.0001326,53.2172,174.823,98.8634,261.2509,6.8153e-05,7.97e-06,0.0,0 STARLINK-3184,1 51143U 22005AR  23232.29091995  .00000797  00000-0  68153-4 0  9999,2 51143  53.2172 174.8230 0001326  98.8634 261.2509 15.08840128 88942,6917.88,95.438,540.662,538.828,0.0
51143.0,STARLINK-3184,PAYLOAD,2023-08-21 05:14:18,15.0884903,0.0001312,53.2167,170.6582,90.7988,269.3154,0.00016125,2.28e-05,0.0,0 STARLINK-3184,1 51143U 22005AR  23233.21827369  .00002280  00000-0  16125-3 0  9994,2 51143  53.2167 170.6582 0001312  90.7988 269.3154 15.08849030 89080,6917.853,95.437,540.625,538.81,0.0
51143.0,STARLINK-3184,PAYLOAD,2023-08-21 19:32:48,15.08835881,0.0001428,53.2169,167.982,87.4656,272.65,7.9883e-05,9.83e-06,0.0,0 STARLINK-3184,1 51143U 22005AR  23233.81444591  .00000983  00000-0  79883-4 0  9991,2 51143  53.2169 167.9820 0001428  87.4656 272.6500 15.08835881 89170,6917.893,95.438,540.746,538.77,0.0
51143.0,STARLINK-3184,PAYLOAD,2023-08-22 05:05:06,15.08843604,0.0001352,53.2174,166.1974,94.3581,265.7566,8.1683e-05,1.012e-05,0.0,0 STARLINK-3184,1 51143U 22005AR  23234.21188147  .00001012  00000-0  81683-4 0  9993,2 51143  53.2174 166.1974 0001352  94.3581 265.7566 15.08843604 89231,6917.869,95.437,540.67,538.799,0.0
51143.0,STARLINK-3184,PAYLOAD,2023-08-24 04:46:40,15.08838556,0.0001436,53.218,157.2757,104.1692,255.946,5.1649e-05,5.34e-06,0.0,0 STARLINK-3184,1 51143U 22005AR  23236.19908392  .00000534  00000-0  51649-4 0  9991,2 51143  53.2180 157.2757 0001436 104.1692 255.9460 15.08838556 88428,6917.885,95.438,540.743,538.756,0.0
51143.0,STARLINK-3184,PAYLOAD,2023-08-25 01:26:43,15.08762765,0.0001916,53.2186,153.4099,97.8468,262.2741,0.0011415,0.00017887,0.0,0 STARLINK-3184,1 51143U 22005AR  23237.06022758  .00017887  00000-0  11415-2 0  9995,2 51143  53.2186 153.4099 0001916  97.8468 262.2741 15.08762765 89661,6918.116,95.442,541.307,538.656,0.0
51143.0,STARLINK-3184,PAYLOAD,2023-08-25 03:02:04,15.08839192,0.00012,53.2186,153.113,96.3792,263.7337,7.207e-05,8.59e-06,0.0,0 STARLINK-3184,1 51143U 22005AR  23237.12644415  .00000859  00000-0  72070-4 0  9999,2 51143  53.2186 153.1130 0001200  96.3792 263.7337 15.08839192 89671,6917.883,95.438,540.578,538.918,0.0
51143.0,STARLINK-3184,PAYLOAD,2023-08-25 18:55:56,15.08838811,0.0001446,53.2188,150.1401,86.5634,273.5524,6.6168e-05,7.65e-06,0.0,0 STARLINK-3184,1 51143U 22005AR  23237.78884521  .00000765  00000-0  66168-4 0  9992,2 51143  53.2188 150.1401 0001446  86.5634 273.5524 15.08838811 88661,6917.884,95.438,540.749,538.749,0.0
51143.0,STARLINK-3184,PAYLOAD,2023-08-26 02:52:51,15.08843317,0.0001472,53.219,148.6535,85.6683,274.4478,9.8579e-05,1.281e-05,0.0,0 STARLINK-3184,1 51143U 22005AR  23238.12004171  .00001281  00000-0  98579-4 0  9991,2 51143  53.2190 148.6535 0001472  85.6683 274.4478 15.08843317 88718,6917.87,95.437,540.754,538.717,0.0
51143.0,STARLINK-3184,PAYLOAD,2023-08-27 02:43:39,15.08841125,0.0001566,53.2192,144.1968,89.3691,270.748,7.7579e-05,9.47e-06,0.0,0 STARLINK-3184,1 51143U 22005AR  23239.11364629  .00000947  00000-0  77579-4 0  9993,2 51143  53.2192 144.1968 0001566  89.3691 270.7480 15.08841125 89971,6917.877,95.437,540.825,538.659,0.0
51143.0,STARLINK-3184,PAYLOAD,2023-08-27 04:19:01,15.08843919,0.0001488,53.2186,143.8956,88.2899,271.8264,6.9587e-05,8.2e-06,0.0,0 STARLINK-3184,1 51143U 22005AR  23239.17988420  .00000820  00000-0  69587-4 0  9990,2 51143  53.2186 143.8956 0001488  88.2899 271.8264 15.08843919 88871,6917.868,95.437,540.763,538.704,0.0
51143.0,STARLINK-3184,PAYLOAD,2023-08-28 10:31:22,15.08838462,0.0001489,53.2186,138.2451,84.4576,275.6586,2.5107e-05,1.12e-06,0.0,0 STARLINK-3184,1 51143U 22005AR  23240.43845080  .00000112  00000-0  25107-4 0  9999,2 51143  53.2186 138.2451 0001489  84.4576 275.6586 15.08838462 90172,6917.885,95.438,540.78,538.72,0.0
51143.0,STARLINK-3184,PAYLOAD,2023-08-28 16:52:54,15.08836581,0.0001521,53.2182,137.0561,86.4373,273.6793,1.0453e-05,-1.22e-06,0.0,0 STARLINK-3184,1 51143U 22005AR  23240.70341387 -.00000122  00000-0  10453-4 0  9990,2 51143  53.2182 137.0561 0001521  86.4373 273.6793 15.08836581 89100,6917.891,95.438,540.808,538.704,0.0
51143.0,STARLINK-3184,PAYLOAD,2023-08-29 02:25:13,15.0884634,0.0001387,53.2173,135.2733,91.1942,268.9209,7.584e-05,9.19e-06,0.0,0 STARLINK-3184,1 51143U 22005AR  23241.10084541  .00000919  00000-0  75840-4 0  9995,2 51143  53.2173 135.2733 0001387  91.1942 268.9209 15.08846340 90279,6917.861,95.437,540.686,538.767,0.0
51143.0,STARLINK-3184,PAYLOAD,2023-08-29 10:22:09,15.08837968,0.0001517,53.2178,133.7855,83.976,276.1405,4.4453e-05,4.2e-06,0.0,0 STARLINK-3184,1 51143U 22005AR  23241.43205226  .00000420  00000-0  44453-4 0  9999,2 51143  53.2178 133.7855 0001517  83.9760 276.1405 15.08837968 90325,6917.887,95.438,540.801,538.702,0.0
51143.0,STARLINK-3184,PAYLOAD,2023-08-30 10:12:56,15.08841769,0.0001134,53.2172,129.3258,105.6094,254.5023,4.2679e-05,3.92e-06,0.0,0 STARLINK-3184,1 51143U 22005AR  23242.42564926  .00000392  00000-0  42679-4 0  9990,2 51143  53.2172 129.3258 0001134 105.6094 254.5023 15.08841769 89366,6917.875,95.437,540.524,538.955,0.0
51143.0,STARLINK-3184,PAYLOAD,2023-08-31 02:06:40,15.08948518,5.8e-05,53.2165,126.356,250.9328,109.1602,0.00025981,3.862e-05,0.0,0 STARLINK-3184,1 51143U 22005AR  23243.08796917  .00003862  00000-0  25981-3 0  9991,2 51143  53.2165 126.3560 0000580 250.9328 109.1602 15.08948518 90572,6917.549,95.431,539.815,539.012,0.0
